[{"OBJECT_NAME":"YAOGAN-39 01B","OBJECT_ID":"2023-130B","EPOCH":"2026-03-09T22:52:09.575040","MEAN_MOTION":15.17346461,"ECCENTRICITY":0.00021598,"INCLINATION":34.9951,"RA_OF_ASC_NODE":50.5935,"ARG_OF_PERICENTER":223.3635,"MEAN_ANOMALY":136.6908,"EPHEMERIS_TYPE":0,"CLASSIFICATION_TYPE":"U","NORAD_CAT_ID":57728,"ELEMENT_SET_NO":999,"REV_AT_EPOCH":14040,"BSTAR":0.00040482695,"MEAN_MOTION_DOT":8.241e-5,"MEAN_MOTION_DDOT":0},{"OBJECT_NAME":"FLOCK 4H-25","OBJECT_ID":"2025-276BQ","EPOCH":"2026-03-09T18:21:52.055712","MEAN_MOTION":15.19480848,"ECCENTRICITY":8.716e-5,"INCLINATION":97.4262,"RA_OF_ASC_NODE":144.1192,"ARG_OF_PERICENTER":117.3208,"MEAN_ANOMALY":242.8115,"EPHEMERIS_TYPE":0,"CLASSIFICATION_TYPE":"U","NORAD_CAT_ID":66728,"ELEMENT_SET_NO":999,"REV_AT_EPOCH":1461,"BSTAR":0.00039445995,"MEAN_MOTION_DOT":8.305e-5,"MEAN_MOTION_DDOT":0}]
